{
    "links": {
        "self": "http://www.neowsapp.com/rest/v1/neo/3409686?api_key=iIulBulltgU6a56xZRHN4H3l9WmuAYTsLGpBGhQ2"
    },
    "id": "3409686",
    "neo_reference_id": "3409686",
    "name": "(2008 HQ3)",
    "designation": "2008 HQ3",
    "nasa_jpl_url": "http://ssd.jpl.nasa.gov/sbdb.cgi?sstr=3409686",
    "absolute_magnitude_h": 27.5,
    "estimated_diameter": {
        "kilometers": {
            "estimated_diameter_min": 0.008405334,
            "estimated_diameter_max": 0.0187948982
        },
        "meters": {
            "estimated_diameter_min": 8.4053340207,
            "estimated_diameter_max": 18.7948982439
        },
        "miles": {
            "estimated_diameter_min": 0.0052228308,
            "estimated_diameter_max": 0.0116786047
        },
        "feet": {
            "estimated_diameter_min": 27.5765560686,
            "estimated_diameter_max": 61.6630539546
        }
    },
    "is_potentially_hazardous_asteroid": false,
    "close_approach_data": [
        {
            "close_approach_date": "1998-05-24",
            "close_approach_date_full": "1998-May-24 13:51",
            "epoch_date_close_approach": 896017860000,
            "relative_velocity": {
                "kilometers_per_second": "8.2263291799",
                "kilometers_per_hour": "29614.7850475599",
                "miles_per_hour": "18401.4757424685"
            },
            "miss_distance": {
                "astronomical": "0.0289984983",
                "lunar": "11.2804158387",
                "kilometers": "4338113.578878621",
                "miles": "2695578.7822661298"
            },
            "orbiting_body": "Mars"
        },
        {
            "close_approach_date": "2007-10-19",
            "close_approach_date_full": "2007-Oct-19 05:19",
            "epoch_date_close_approach": 1192771140000,
            "relative_velocity": {
                "kilometers_per_second": "7.7958872022",
                "kilometers_per_hour": "28065.1939278065",
                "miles_per_hour": "17438.6200825307"
            },
            "miss_distance": {
                "astronomical": "0.0352604972",
                "lunar": "13.7163334108",
                "kilometers": "5274895.276260964",
                "miles": "3277667.9371867432"
            },
            "orbiting_body": "Mars"
        },
        {
            "close_approach_date": "2008-04-23",
            "close_approach_date_full": "2008-Apr-23 08:04",
            "epoch_date_close_approach": 1208937840000,
            "relative_velocity": {
                "kilometers_per_second": "4.5002951235",
                "kilometers_per_hour": "16201.0624445758",
                "miles_per_hour": "10066.7101617421"
            },
            "miss_distance": {
                "astronomical": "0.0222514664",
                "lunar": "8.6558204296",
                "kilometers": "3328771.977816568",
                "miles": "2068402.9938939184"
            },
            "orbiting_body": "Earth"
        }
    ],
    "orbital_data": {
        "orbit_id": "8",
        "orbit_determination_date": "2017-04-06 09:03:36",
        "first_observation_date": "2008-04-29",
        "last_observation_date": "2008-05-06",
        "data_arc_in_days": 7,
        "observations_used": 22,
        "orbit_uncertainty": "8",
        "minimum_orbit_intersection": ".00740066",
        "jupiter_tisserand_invariant": "4.822",
        "epoch_osculation": "2454586.5",
        "eccentricity": ".2627146639071951",
        "semi_major_axis": "1.355992946449371",
        "inclination": "1.79084702189959",
        "ascending_node_longitude": "211.8526615438788",
        "orbital_period": "576.7459752469448",
        "perihelion_distance": ".9997537152623972",
        "perihelion_argument": "334.6300269726048",
        "aphelion_distance": "1.712232177636345",
        "perihelion_time": "2454555.976722943209",
        "mean_anomaly": "19.05237350939445",
        "mean_motion": ".6241916119932335",
        "equinox": "J2000",
        "orbit_class": {
            "orbit_class_type": "APO",
            "orbit_class_description": "Near-Earth asteroid orbits which cross the Earth’s orbit similar to that of 1862 Apollo",
            "orbit_class_range": "a (semi-major axis) > 1.0 AU; q (perihelion) < 1.017 AU"
        }
    },
    "is_sentry_object": false
}